OBJECT_NAME,OBJECT_ID,EPOCH,MEAN_MOTION,ECCENTRICITY,INCLINATION,RA_OF_ASC_NODE,ARG_OF_PERICENTER,MEAN_ANOMALY,EPHEMERIS_TYPE,CLASSIFICATION_TYPE,NORAD_CAT_ID,ELEMENT_SET_NO,REV_AT_EPOCH,BSTAR,MEAN_MOTION_DOT,MEAN_MOTION_DDOT
CHINASAT 9B,2021-080A,2026-07-16T22:21:26.639712,1.00267936,.00022163,0.0544,247.0564,258.9866,225.4462,0,U,49125,999,1794,0,-.322E-5,0
SHIJIAN-21 (SJ-21),2021-094A,2026-07-17T06:08:48.274656,1.00277084,.00515814,5.1825,60.9962,168.9621,285.2578,0,U,49330,999,566,0,-.359E-5,0
SES-17,2021-095A,2026-07-16T18:08:09.473280,1.00269281,.00008335,0.0243,50.5252,64.0939,24.8920,0,U,49332,999,1815,0,-.283E-5,0
SYRACUSE 4A,2021-095B,2026-07-17T06:38:46.598208,1.00270128,.00016419,0.0230,68.2529,40.2638,331.7893,0,U,49333,999,1824,0,0,0
QZS-1R (MICHIBIKI-1R),2021-096A,2026-07-14T13:49:51.633120,1.00245239,.0754906,37.5157,79.1769,272.2285,280.2291,0,U,49336,999,1728,0,-.304E-5,0
ZHONGXING-1D,2021-114A,2026-07-17T07:02:51.787680,1.00267447,.00006699,0.0281,227.0469,25.5484,278.3733,0,U,49505,999,1712,0,-.347E-5,0
STPSAT-6,2021-118A,2026-07-16T23:03:15.130656,1.00270380,.00009286,0.3958,85.0877,244.0511,199.6623,0,U,49817,999,1687,0,-.55E-6,0
EXPRESS AMU-7,2021-123A,2026-07-17T03:41:52.218240,1.00272238,.00003976,0.0304,276.9807,23.9521,194.5046,0,U,50001,999,1684,0,-.253E-5,0
EXPRESS AMU-3,2021-123B,2026-07-16T21:29:32.083872,1.00271212,.00003461,0.0145,344.9181,324.0235,51.0553,0,U,50002,999,733,0,0,0
TIANLIAN 2-02,2021-124A,2026-07-17T05:31:53.503104,1.00271006,.00016563,0.8774,85.6286,161.3851,301.9620,0,U,50005,999,1692,0,-.25E-6,0
TURKSAT 5B,2021-126A,2026-07-17T01:29:52.672416,1.00270971,.00023014,0.0698,341.4108,12.6933,5.2373,0,U,50212,999,1659,0,.136E-5,0
INMARSAT 6-F1,2021-128A,2026-07-17T04:43:38.835264,1.00269491,.00001018,0.0160,49.7284,49.0611,350.9018,0,U,50319,999,1656,0,0,0
SHIYAN-12 01 (SY-12 01),2021-129A,2026-07-16T18:06:45.903744,1.00052041,.0002606,3.7490,79.5113,287.1397,235.6582,0,U,50321,999,1679,0,.137E-5,0
SHIYAN-12 02 (SY-12 02),2021-129B,2026-07-16T18:11:11.945760,1.00476521,.0003112,3.7480,79.5110,69.2267,170.1657,0,U,50322,999,1679,0,-.374E-5,0
TJS-9,2021-135A,2026-07-17T07:04:59.084256,1.00271598,.00021198,0.0516,100.3774,330.8402,107.3901,0,U,50574,999,1673,0,-.309E-5,0
GOES 18,2022-021A,2026-07-17T05:36:38.720736,1.00271760,.00004341,0.0129,125.1811,48.5879,68.4375,0,U,51850,999,689,0,.87E-6,0
ZHONGXING-6D,2022-038A,2026-07-15T20:04:54.365376,1.00271676,.00006952,0.0285,209.4487,329.0620,181.4693,0,U,52255,999,1571,0,-.364E-5,0
NILESAT 301,2022-061A,2026-07-17T06:23:48.033024,1.00269845,.00035538,0.0459,5.2543,76.1761,302.6089,0,U,52817,999,1503,0,-.68E-6,0
CMS-02 (GSAT-24),2022-067A,2026-07-17T01:41:29.059872,1.00270649,.00010304,0.0615,252.5731,106.2037,44.4622,0,U,52903,999,1490,0,-.174E-5,0
MEASAT 3D,2022-067B,2026-07-17T06:51:45.353376,1.00270868,.00005535,0.0401,318.7736,65.3640,105.4096,0,U,52904,999,1495,0,-.251E-5,0
SES-22,2022-071A,2026-07-17T05:36:38.720736,1.00272576,.00008998,0.0194,39.7801,67.9272,132.4844,0,U,52933,999,782,0,.94E-6,0
WFOV (USA 332),2022-073A,2026-07-17T05:17:09.916224,1.00266281,.00014186,3.7860,78.1472,216.5890,198.8237,0,U,52940,999,1467,0,-.374E-5,0
TIANLIAN 2-03,2022-078A,2026-07-17T06:28:47.555040,1.00271333,.00008397,0.7450,77.5276,14.5008,310.8966,0,U,53100,999,1484,0,.62E-6,0
SBIRS GEO-6 (USA 336),2022-092A,2026-07-17T07:05:29.037408,1.00270992,.00017466,3.2077,317.9921,153.0633,69.4268,0,U,53355,999,1453,0,-.3E-5,0
EUTELSAT KONNECT VHTS,2022-110A,2026-07-17T06:26:32.770176,1.00269812,.00027753,0.0584,98.5051,348.0713,307.8320,0,U,53765,999,713,0,.7E-7,0
ZHONGXING-1E,2022-112A,2026-07-17T03:48:38.629152,1.00270484,.00007437,0.0184,233.3630,40.2827,159.9156,0,U,53813,999,1414,0,0,0
SES-20,2022-123A,2026-07-16T23:05:44.892096,1.00269088,.00018225,0.0176,69.2410,25.1117,83.7583,0,U,53960,999,1383,0,-.111E-5,0
SES-21,2022-123B,2026-07-17T05:48:24.460128,1.00267935,.00009902,0.0381,38.6743,76.4588,136.1182,0,U,53961,999,751,0,0,0
GALAXY 33 (G-33),2022-128A,2026-07-17T05:47:54.507840,1.00269560,.00018227,0.0147,60.3719,53.0105,135.6434,0,U,54026,999,1404,0,.69E-6,0
GALAXY 34 (G-34),2022-128B,2026-07-17T05:49:01.899840,1.00267690,.00015716,0.0100,60.2589,62.7326,130.3159,0,U,54027,999,1421,0,.49E-6,0
ANGOSAT 2,2022-131A,2026-07-16T20:39:38.577888,1.00271065,.00001796,0.0202,116.8851,236.2611,274.4367,0,U,54033,999,1377,0,.125E-5,0
